ORBCOMM FM103           
1 40091U 14040F   25325.49292416  .00000733  00000+0  19286-3 0  9998
2 40091  47.0066 354.7587 0002670 277.9392  82.1191 14.58480747587068
ORBCOMM FM119           
1 41180U 15081B   25324.34067481  .00000638  00000+0  17258-3 0  9990
2 41180  46.9988 178.5231 0000802  21.7306 338.3614 14.58445712528516
ORBCOMM FM105           
1 41181U 15081C   25325.01046075  .00000243  00000+0  11306-3 0  9992
2 41181  47.0003 195.6125 0002180 299.8782  60.1882 14.45377512523437
ORBCOMM FM110           
1 41182U 15081D   25325.02127078  .00000933  00000+0  23488-3 0  9997
2 41182  47.0015 265.4657 0002388 219.7364 140.3347 14.58575039527231
ORBCOMM FM118           
1 41183U 15081E   25325.46629487  .00000948  00000+0  23840-3 0  9995
2 41183  47.0042 263.6511 0002179 168.7252 191.3682 14.58524159527402
ORBCOMM FM112           
1 41184U 15081F   25324.99004034  .00000620  00000+0  16834-3 0  9990
2 41184  46.9974 174.4543 0001485 329.6869  30.3930 14.58592980528552
ORBCOMM FM113           
1 41185U 15081G   25324.62478076  .00000755  00000+0  19701-3 0  9997
2 41185  46.9991 176.5326 0001187 340.6571  19.4269 14.58582529528489
